start=new Date('2022-01-26T00:00:00.000Z').valueOf();
sats=[{"CENTER_NAME":"EARTH","LAUNCH_DATE":"2021-02-04","EPOCH":"2022-01-25T21:57:34.136352","OBJECT_TYPE":"PAYLOAD","MEAN_MOTION_DOT":"0.00000466","REV_AT_EPOCH":"5428","MEAN_ELEMENT_THEORY":"SGP4","TLE_LINE1":"1 47572U 21009AA  22025.91497843  .00000466  00000-0  50187-4 0  9994","REF_FRAME":"TEME","RA_OF_ASC_NODE":"282.3263","DECAY_DATE":null,"COUNTRY_CODE":"US","CLASSIFICATION_TYPE":"U","BSTAR":"0.00005018700000","EPHEMERIS_TYPE":"0","INCLINATION":"53.0565","SEMIMAJOR_AXIS":"6925.353","OBJECT_NAME":"STARLINK-1971","NORAD_CAT_ID":"47572","APOAPSIS":"548.453","ECCENTRICITY":"0.00017830","ELEMENT_SET_NO":"999","PERIAPSIS":"545.983","GP_ID":"194643620","RCS_SIZE":"LARGE","MEAN_MOTION":"15.06398566","FILE":"3283711","OBJECT_ID":"2021-009AA","MEAN_ANOMALY":"298.5726","MEAN_MOTION_DDOT":"0.0000000000000","TIME_SYSTEM":"UTC","ARG_OF_PERICENTER":"61.5442","SITE":"AFETR","TLE_LINE2":"2 47572  53.0565 282.3263 0001783  61.5442 298.5726 15.06398566 54285","PERIOD":"95.592"},{"RA_OF_ASC_NODE":"282.4215","DECAY_DATE":null,"COUNTRY_CODE":"US","SEMIMAJOR_AXIS":"6925.345","BSTAR":"-0.00006954500000","CLASSIFICATION_TYPE":"U","EPHEMERIS_TYPE":"0","INCLINATION":"53.0557","OBJECT_NAME":"STARLINK-1975","APOAPSIS":"548.510","ECCENTRICITY":"0.00018780","NORAD_CAT_ID":"47573","CENTER_NAME":"EARTH","LAUNCH_DATE":"2021-02-04","MEAN_MOTION_DOT":"-0.00001317","OBJECT_TYPE":"PAYLOAD","REV_AT_EPOCH":"5427","EPOCH":"2022-01-25T21:25:43.472928","REF_FRAME":"TEME","TLE_LINE1":"1 47573U 21009AB  22025.89286427 -.00001317  00000-0 -69545-4 0  9992","MEAN_ELEMENT_THEORY":"SGP4","OBJECT_ID":"2021-009AB","MEAN_ANOMALY":"298.1378","MEAN_MOTION_DDOT":"0.0000000000000","ARG_OF_PERICENTER":"61.9801","TIME_SYSTEM":"UTC","SITE":"AFETR","TLE_LINE2":"2 47573  53.0557 282.4215 0001878  61.9801 298.1378 15.06401240 54275","PERIOD":"95.592","PERIAPSIS":"545.909","ELEMENT_SET_NO":"999","GP_ID":"194644370","RCS_SIZE":"LARGE","MEAN_MOTION":"15.06401240","FILE":"3283711"},{"ELEMENT_SET_NO":"999","PERIAPSIS":"545.941","GP_ID":"194617469","RCS_SIZE":"LARGE","MEAN_MOTION":"15.06408834","FILE":"3283533","OBJECT_ID":"2021-009AC","MEAN_ANOMALY":"298.4181","MEAN_MOTION_DDOT":"0.0000000000000","TIME_SYSTEM":"UTC","ARG_OF_PERICENTER":"61.6989","SITE":"AFETR","TLE_LINE2":"2 47574  53.0565 314.1416 0001799  61.6989 298.4181 15.06408834 54391","PERIOD":"95.592","CENTER_NAME":"EARTH","LAUNCH_DATE":"2021-02-04","EPOCH":"2022-01-25T12:15:02.670912","OBJECT_TYPE":"PAYLOAD","MEAN_MOTION_DOT":"0.00002028","REV_AT_EPOCH":"5439","TLE_LINE1":"1 47574U 21009AC  22025.51044758  .00002028  00000-0  15500-3 0  9990","MEAN_ELEMENT_THEORY":"SGP4","REF_FRAME":"TEME","RA_OF_ASC_NODE":"314.1416","DECAY_DATE":null,"COUNTRY_CODE":"US","EPHEMERIS_TYPE":"0","BSTAR":"0.00015500000000","CLASSIFICATION_TYPE":"U","INCLINATION":"53.0565","SEMIMAJOR_AXIS":"6925.321","OBJECT_NAME":"STARLINK-1976","NORAD_CAT_ID":"47574","APOAPSIS":"548.432","ECCENTRICITY":"0.00017990"},{"RCS_SIZE":"LARGE","MEAN_MOTION":"15.06415875","FILE":"3283711","PERIAPSIS":"545.941","ELEMENT_SET_NO":"999","GP_ID":"194642869","TIME_SYSTEM":"UTC","ARG_OF_PERICENTER":"69.4661","SITE":"AFETR","TLE_LINE2":"2 47575  53.0552 312.4033 0001768  69.4661 290.6517 15.06415875 53853","PERIOD":"95.591","OBJECT_ID":"2021-009AD","MEAN_ANOMALY":"290.6517","MEAN_MOTION_DDOT":"0.0000000000000","LAUNCH_DATE":"2021-02-04","OBJECT_TYPE":"PAYLOAD","EPOCH":"2022-01-25T21:32:20.950944","MEAN_MOTION_DOT":"0.00002444","REV_AT_EPOCH":"5385","REF_FRAME":"TEME","MEAN_ELEMENT_THEORY":"SGP4","TLE_LINE1":"1 47575U 21009AD  22025.89746471  .00002444  00000-0  18283-3 0  9996","CENTER_NAME":"EARTH","SEMIMAJOR_AXIS":"6925.300","BSTAR":"0.00018283000000","CLASSIFICATION_TYPE":"U","INCLINATION":"53.0552","EPHEMERIS_TYPE":"0","OBJECT_NAME":"STARLINK-1977","ECCENTRICITY":"0.00017680","APOAPSIS":"548.389","NORAD_CAT_ID":"47575","RA_OF_ASC_NODE":"312.4033","DECAY_DATE":null,"COUNTRY_CODE":"US"},{"INCLINATION":"53.0529","BSTAR":"0.00008347200000","EPHEMERIS_TYPE":"0","CLASSIFICATION_TYPE":"U","SEMIMAJOR_AXIS":"6925.340","OBJECT_NAME":"STARLINK-1978","NORAD_CAT_ID":"47576","APOAPSIS":"548.610","ECCENTRICITY":"0.00020280","RA_OF_ASC_NODE":"272.2504","DECAY_DATE":null,"COUNTRY_CODE":"US","LAUNCH_DATE":"2021-02-04","REV_AT_EPOCH":"5442","OBJECT_TYPE":"PAYLOAD","MEAN_MOTION_DOT":"0.00000962","EPOCH":"2022-01-25T22:20:06.699840","TLE_LINE1":"1 47576U 21009AE  22025.93063310  .00000962  00000-0  83472-4 0  9992","MEAN_ELEMENT_THEORY":"SGP4","REF_FRAME":"TEME","CENTER_NAME":"EARTH","TIME_SYSTEM":"UTC","ARG_OF_PERICENTER":"59.2097","SITE":"AFETR","TLE_LINE2":"2 47576  53.0529 272.2504 0002028  59.2097 300.9092 15.06402631 54427","PERIOD":"95.592","OBJECT_ID":"2021-009AE","MEAN_ANOMALY":"300.9092","MEAN_MOTION_DDOT":"0.0000000000000","RCS_SIZE":"LARGE","MEAN_MOTION":"15.06402631","FILE":"3283711","ELEMENT_SET_NO":"999","PERIAPSIS":"545.801","GP_ID":"194644120"},{"NORAD_CAT_ID":"47577","APOAPSIS":"548.341","ECCENTRICITY":"0.00016420","INCLINATION":"53.0542","BSTAR":"0.00006316200000","EPHEMERIS_TYPE":"0","CLASSIFICATION_TYPE":"U","SEMIMAJOR_AXIS":"6925.339","OBJECT_NAME":"STARLINK-1979","COUNTRY_CODE":"US","RA_OF_ASC_NODE":"287.3797","DECAY_DATE":null,"REV_AT_EPOCH":"5421","OBJECT_TYPE":"PAYLOAD","MEAN_MOTION_DOT":"0.00000659","EPOCH":"2022-01-25T21:43:36.863328","MEAN_ELEMENT_THEORY":"SGP4","TLE_LINE1":"1 47577U 21009AF  22025.90528777  .00000659  00000-0  63162-4 0  9990","REF_FRAME":"TEME","LAUNCH_DATE":"2021-02-04","CENTER_NAME":"EARTH","TLE_LINE2":"2 47577  53.0542 287.3797 0001642  66.3070 293.8092 15.06403026 54211","PERIOD":"95.592","ARG_OF_PERICENTER":"66.3070","TIME_SYSTEM":"UTC","SITE":"AFETR","MEAN_ANOMALY":"293.8092","MEAN_MOTION_DDOT":"0.0000000000000","OBJECT_ID":"2021-009AF","FILE":"3283711","RCS_SIZE":"LARGE","MEAN_MOTION":"15.06403026","ELEMENT_SET_NO":"999","PERIAPSIS":"546.067","GP_ID":"194643871"},{"NORAD_CAT_ID":"47578","APOAPSIS":"548.444","ECCENTRICITY":"0.00017250","BSTAR":"-0.00007198800000","EPHEMERIS_TYPE":"0","INCLINATION":"53.0557","CLASSIFICATION_TYPE":"U","SEMIMAJOR_AXIS":"6925.384","OBJECT_NAME":"STARLINK-1980","COUNTRY_CODE":"US","RA_OF_ASC_NODE":"292.3906","DECAY_DATE":null,"OBJECT_TYPE":"PAYLOAD","MEAN_MOTION_DOT":"-0.00001353","EPOCH":"2022-01-25T21:35:00.883392","REV_AT_EPOCH":"5413","MEAN_ELEMENT_THEORY":"SGP4","TLE_LINE1":"1 47578U 21009AG  22025.89931578 -.00001353  00000-0 -71988-4 0  9995","REF_FRAME":"TEME","LAUNCH_DATE":"2021-02-04","CENTER_NAME":"EARTH","TLE_LINE2":"2 47578  53.0557 292.3906 0001725  68.3870 291.7303 15.06388335 54136","PERIOD":"95.593","ARG_OF_PERICENTER":"68.3870","TIME_SYSTEM":"UTC","SITE":"AFETR","MEAN_ANOMALY":"291.7303","MEAN_MOTION_DDOT":"0.0000000000000","OBJECT_ID":"2021-009AG","FILE":"3283711","RCS_SIZE":"LARGE","MEAN_MOTION":"15.06388335","ELEMENT_SET_NO":"999","PERIAPSIS":"546.055","GP_ID":"194643119"},{"GP_ID":"194643369","ELEMENT_SET_NO":"999","PERIAPSIS":"546.097","MEAN_MOTION":"15.06403280","RCS_SIZE":"LARGE","FILE":"3283711","OBJECT_ID":"2021-009AH","MEAN_MOTION_DDOT":"0.0000000000000","MEAN_ANOMALY":"299.1924","SITE":"AFETR","ARG_OF_PERICENTER":"60.9224","TIME_SYSTEM":"UTC","PERIOD":"95.592","TLE_LINE2":"2 47579  53.0554 282.1777 0001598  60.9224 299.1924 15.06403280 54280","CENTER_NAME":"EARTH","LAUNCH_DATE":"2021-02-04","TLE_LINE1":"1 47579U 21009AH  22025.94814487  .00001152  00000-0  96242-4 0  9996","MEAN_ELEMENT_THEORY":"SGP4","REF_FRAME":"TEME","OBJECT_TYPE":"PAYLOAD","MEAN_MOTION_DOT":"0.00001152","EPOCH":"2022-01-25T22:45:19.716768","REV_AT_EPOCH":"5428","DECAY_DATE":null,"RA_OF_ASC_NODE":"282.1777","COUNTRY_CODE":"US","OBJECT_NAME":"STARLINK-1981","CLASSIFICATION_TYPE":"U","BSTAR":"0.00009624200000","INCLINATION":"53.0554","EPHEMERIS_TYPE":"0","SEMIMAJOR_AXIS":"6925.339","NORAD_CAT_ID":"47579","APOAPSIS":"548.310","ECCENTRICITY":"0.00015980"},{"MEAN_MOTION":"15.06400505","RCS_SIZE":"LARGE","FILE":"3283711","GP_ID":"194643621","PERIAPSIS":"545.887","ELEMENT_SET_NO":"999","SITE":"AFETR","TIME_SYSTEM":"UTC","ARG_OF_PERICENTER":"60.1623","PERIOD":"95.592","TLE_LINE2":"2 47580  53.0556 292.3739 0001913  60.1623 299.9556 15.06400505 54131","OBJECT_ID":"2021-009AJ","MEAN_MOTION_DDOT":"0.0000000000000","MEAN_ANOMALY":"299.9556","LAUNCH_DATE":"2021-02-04","REF_FRAME":"TEME","MEAN_ELEMENT_THEORY":"SGP4","TLE_LINE1":"1 47580U 21009AJ  22025.90299609 -.00000162  00000-0  80182-5 0  9995","MEAN_MOTION_DOT":"-0.00000162","OBJECT_TYPE":"PAYLOAD","EPOCH":"2022-01-25T21:40:18.862176","REV_AT_EPOCH":"5413","CENTER_NAME":"EARTH","OBJECT_NAME":"STARLINK-1982","SEMIMAJOR_AXIS":"6925.347","EPHEMERIS_TYPE":"0","BSTAR":"0.00000801820000","INCLINATION":"53.0556","CLASSIFICATION_TYPE":"U","APOAPSIS":"548.537","ECCENTRICITY":"0.00019130","NORAD_CAT_ID":"47580","DECAY_DATE":null,"RA_OF_ASC_NODE":"292.3739","COUNTRY_CODE":"US"},{"PERIOD":"95.593","TLE_LINE2":"2 47581  53.0553 272.4748 0001751  67.1972 292.9202 15.06392919 54413","SITE":"AFETR","TIME_SYSTEM":"UTC","ARG_OF_PERICENTER":"67.1972","MEAN_MOTION_DDOT":"0.0000000000000","MEAN_ANOMALY":"292.9202","OBJECT_ID":"2021-009AK","FILE":"3283711","MEAN_MOTION":"15.06392919","RCS_SIZE":"LARGE","GP_ID":"194644371","PERIAPSIS":"546.023","ELEMENT_SET_NO":"999","APOAPSIS":"548.448","ECCENTRICITY":"0.00017510","NORAD_CAT_ID":"47581","OBJECT_NAME":"STARLINK-1984","SEMIMAJOR_AXIS":"6925.370","BSTAR":"-0.00009865700000","EPHEMERIS_TYPE":"0","CLASSIFICATION_TYPE":"U","INCLINATION":"53.0553","COUNTRY_CODE":"US","DECAY_DATE":null,"RA_OF_ASC_NODE":"272.4748","REF_FRAME":"TEME","MEAN_ELEMENT_THEORY":"SGP4","TLE_LINE1":"1 47581U 21009AK  22025.88272198 -.00001750  00000-0 -98657-4 0  9997","OBJECT_TYPE":"PAYLOAD","MEAN_MOTION_DOT":"-0.00001750","REV_AT_EPOCH":"5441","EPOCH":"2022-01-25T21:11:07.179072","LAUNCH_DATE":"2021-02-04","CENTER_NAME":"EARTH"}];
